{
  "type": "FeatureCollection",
  "features": [
    {
      "type": "Feature",
      "properties": {
        "norad_id": 29780,
        "name": "FENGYUN 1C DEB",
        "group": "fengyun-1c-debris",
        "lat": 72.863360371674,
        "lon": 134.98025768422113,
        "alt_km": 785.6906680843358,
        "timestamp": "2025-12-27T07:26:25.493035+00:00",
        "meta_object_name": "FENGYUN 1C DEB",
        "meta_object_id": "1999-025BW",
        "meta_epoch": "2025-12-26T07:17:51.271296",
        "meta_mean_motion": 14.211339,
        "meta_eccentricity": 0.0042031,
        "meta_inclination": 99.278,
        "meta_ra_of_asc_node": 281.9088,
        "meta_arg_of_pericenter": 89.0919,
        "meta_mean_anomaly": 271.5072,
        "meta_ephemeris_type": 0,
        "meta_classification_type": "U",
        "meta_norad_cat_id": 29780,
        "meta_element_set_no": 999,
        "meta_rev_at_epoch": 97271,
        "meta_bstar": 0.0017695,
        "meta_mean_motion_dot": 3.834e-05,
        "meta_mean_motion_ddot": 0,
        "tle_line1": "1 29780U 99025BW  25360.30406564  .00003834  00000+0  17695-2 0  9992",
        "tle_line2": "2 29780  99.2780 281.9088 0042031  89.0919 271.5072 14.21133900972719"
      },
      "geometry": {
        "type": "Point",
        "coordinates": [
          134.98025768422113,
          72.863360371674
        ]
      }
    },
    {
      "type": "Feature",
      "properties": {
        "norad_id": 29781,
        "name": "FENGYUN 1C DEB",
        "group": "fengyun-1c-debris",
        "lat": -54.595134627795446,
        "lon": 7.653630112566348,
        "alt_km": 934.6723832063735,
        "timestamp": "2025-12-27T07:26:25.493045+00:00",
        "meta_object_name": "FENGYUN 1C DEB",
        "meta_object_id": "1999-025BX",
        "meta_epoch": "2025-12-26T23:25:39.628704",
        "meta_mean_motion": 14.05260391,
        "meta_eccentricity": 0.00724425,
        "meta_inclination": 98.8108,
        "meta_ra_of_asc_node": 354.7256,
        "meta_arg_of_pericenter": 133.2661,
        "meta_mean_anomaly": 283.0583,
        "meta_ephemeris_type": 0,
        "meta_classification_type": "U",
        "meta_norad_cat_id": 29781,
        "meta_element_set_no": 999,
        "meta_rev_at_epoch": 96843,
        "meta_bstar": 0.00062518889,
        "meta_mean_motion_dot": 9.93e-06,
        "meta_mean_motion_ddot": 0,
        "tle_line1": "1 29781U 99025BX  25360.97615311  .00000993  00000+0  62519-3 0  9997",
        "tle_line2": "2 29781  98.8108 354.7256 0072442 133.2661 283.0583 14.05260391968436"
      },
      "geometry": {
        "type": "Point",
        "coordinates": [
          7.653630112566348,
          -54.595134627795446
        ]
      }
    },
    {
      "type": "Feature",
      "properties": {
        "norad_id": 29782,
        "name": "FENGYUN 1C DEB",
        "group": "fengyun-1c-debris",
        "lat": -39.191280543475514,
        "lon": 62.618109784033535,
        "alt_km": 896.9658894661952,
        "timestamp": "2025-12-27T07:26:25.493056+00:00",
        "meta_object_name": "FENGYUN 1C DEB",
        "meta_object_id": "1999-025BY",
        "meta_epoch": "2025-12-26T22:15:11.882304",
        "meta_mean_motion": 14.1172744,
        "meta_eccentricity": 0.00557417,
        "meta_inclination": 99.0993,
        "meta_ra_of_asc_node": 54.7219,
        "meta_arg_of_pericenter": 164.2975,
        "meta_mean_anomaly": 11.3769,
        "meta_ephemeris_type": 0,
        "meta_classification_type": "U",
        "meta_norad_cat_id": 29782,
        "meta_element_set_no": 999,
        "meta_rev_at_epoch": 96871,
        "meta_bstar": 0.0013648888,
        "meta_mean_motion_dot": 2.477e-05,
        "meta_mean_motion_ddot": 0,
        "tle_line1": "1 29782U 99025BY  25360.92722086  .00002477  00000+0  13649-2 0  9999",
        "tle_line2": "2 29782  99.0993  54.7219 0055741 164.2975  11.3769 14.11727440968712"
      },
      "geometry": {
        "type": "Point",
        "coordinates": [
          62.618109784033535,
          -39.191280543475514
        ]
      }
    },
    {
      "type": "Feature",
      "properties": {
        "norad_id": 29784,
        "name": "FENGYUN 1C DEB",
        "group": "fengyun-1c-debris",
        "lat": 23.18530478294293,
        "lon": -83.34558833884951,
        "alt_km": 815.8369713425172,
        "timestamp": "2025-12-27T07:26:25.493067+00:00",
        "meta_object_name": "FENGYUN 1C DEB",
        "meta_object_id": "1999-025CA",
        "meta_epoch": "2025-12-26T18:09:29.730240",
        "meta_mean_motion": 14.306204,
        "meta_eccentricity": 0.00591273,
        "meta_inclination": 98.9467,
        "meta_ra_of_asc_node": 279.954,
        "meta_arg_of_pericenter": 255.926,
        "meta_mean_anomaly": 158.4907,
        "meta_ephemeris_type": 0,
        "meta_classification_type": "U",
        "meta_norad_cat_id": 29784,
        "meta_element_set_no": 999,
        "meta_rev_at_epoch": 98560,
        "meta_bstar": 0.00050914694,
        "meta_mean_motion_dot": 1.308e-05,
        "meta_mean_motion_ddot": 0,
        "tle_line1": "1 29784U 99025CA  25360.75659410  .00001308  00000+0  50915-3 0  9992",
        "tle_line2": "2 29784  98.9467 279.9540 0059127 255.9260 158.4907 14.30620400985606"
      },
      "geometry": {
        "type": "Point",
        "coordinates": [
          -83.34558833884951,
          23.18530478294293
        ]
      }
    },
    {
      "type": "Feature",
      "properties": {
        "norad_id": 29786,
        "name": "FENGYUN 1C DEB",
        "group": "fengyun-1c-debris",
        "lat": -79.76972322457814,
        "lon": 76.49976013803646,
        "alt_km": 815.7569570735368,
        "timestamp": "2025-12-27T07:26:25.493077+00:00",
        "meta_object_name": "FENGYUN 1C DEB",
        "meta_object_id": "1999-025CC",
        "meta_epoch": "2025-12-26T22:10:40.058400",
        "meta_mean_motion": 14.09093799,
        "meta_eccentricity": 0.0076873,
        "meta_inclination": 98.7349,
        "meta_ra_of_asc_node": 17.7091,
        "meta_arg_of_pericenter": 262.4302,
        "meta_mean_anomaly": 216.0128,
        "meta_ephemeris_type": 0,
        "meta_classification_type": "U",
        "meta_norad_cat_id": 29786,
        "meta_element_set_no": 999,
        "meta_rev_at_epoch": 97360,
        "meta_bstar": 0.00022880666,
        "meta_mean_motion_dot": 3.65e-06,
        "meta_mean_motion_ddot": 0,
        "tle_line1": "1 29786U 99025CC  25360.92407475  .00000365  00000+0  22881-3 0  9998",
        "tle_line2": "2 29786  98.7349  17.7091 0076873 262.4302 216.0128 14.09093799973605"
      },
      "geometry": {
        "type": "Point",
        "coordinates": [
          76.49976013803646,
          -79.76972322457814
        ]
      }
    },
    {
      "type": "Feature",
      "properties": {
        "norad_id": 29788,
        "name": "FENGYUN 1C DEB",
        "group": "fengyun-1c-debris",
        "lat": 16.009831857744697,
        "lon": 70.42618894604541,
        "alt_km": 826.1737081376041,
        "timestamp": "2025-12-27T07:26:25.493087+00:00",
        "meta_object_name": "FENGYUN 1C DEB",
        "meta_object_id": "1999-025CE",
        "meta_epoch": "2025-12-26T18:28:19.282368",
        "meta_mean_motion": 14.26073974,
        "meta_eccentricity": 0.00430584,
        "meta_inclination": 98.7828,
        "meta_ra_of_asc_node": 72.4271,
        "meta_arg_of_pericenter": 150.0155,
        "meta_mean_anomaly": 334.1482,
        "meta_ephemeris_type": 0,
        "meta_classification_type": "U",
        "meta_norad_cat_id": 29788,
        "meta_element_set_no": 999,
        "meta_rev_at_epoch": 97555,
        "meta_bstar": 0.0015156818,
        "meta_mean_motion_dot": 3.614e-05,
        "meta_mean_motion_ddot": 0,
        "tle_line1": "1 29788U 99025CE  25360.76966762  .00003614  00000+0  15157-2 0  9998",
        "tle_line2": "2 29788  98.7828  72.4271 0043058 150.0155 334.1482 14.26073974975557"
      },
      "geometry": {
        "type": "Point",
        "coordinates": [
          70.42618894604541,
          16.009831857744697
        ]
      }
    },
    {
      "type": "Feature",
      "properties": {
        "norad_id": 29789,
        "name": "FENGYUN 1C DEB",
        "group": "fengyun-1c-debris",
        "lat": 6.078389728078312,
        "lon": -177.52678146128198,
        "alt_km": 1178.7059887457117,
        "timestamp": "2025-12-27T07:26:25.493098+00:00",
        "meta_object_name": "FENGYUN 1C DEB",
        "meta_object_id": "1999-025CF",
        "meta_epoch": "2025-12-26T07:29:10.511808",
        "meta_mean_motion": 13.54272993,
        "meta_eccentricity": 0.0298273,
        "meta_inclination": 99.4515,
        "meta_ra_of_asc_node": 182.5342,
        "meta_arg_of_pericenter": 244.5623,
        "meta_mean_anomaly": 295.2937,
        "meta_ephemeris_type": 0,
        "meta_classification_type": "U",
        "meta_norad_cat_id": 29789,
        "meta_element_set_no": 999,
        "meta_rev_at_epoch": 93171,
        "meta_bstar": 0.001476,
        "meta_mean_motion_dot": 1.29e-05,
        "meta_mean_motion_ddot": 0,
        "tle_line1": "1 29789U 99025CF  25360.31192722  .00001290  00000+0  14760-2 0  9994",
        "tle_line2": "2 29789  99.4515 182.5342 0298273 244.5623 295.2937 13.54272993931715"
      },
      "geometry": {
        "type": "Point",
        "coordinates": [
          -177.52678146128198,
          6.078389728078312
        ]
      }
    }
  ]
}